[
    {
        "Altitude(m)": 611967.1509244828,
        "Argument of Periapsis(deg)": 0.0,
        "Eccentricity": 0.0,
        "Inclination(deg)": 60.0,
        "Latitude(deg)": 59.14007667783798,
        "Longitude(deg)": -123.90781730133963,
        "Mean Anomaly(deg)": 98.18179999999998,
        "RAAN(deg)": 229.99999999999997,
        "Satellite Name": "Test1 1018",
        "Satellite Number": 1018,
        "Semi-Major Axis(m)": 6980739.136638005,
        "Time(s)": 0
    },
    {
        "Altitude(m)": 611934.3502265314,
        "Argument of Periapsis(deg)": 0.00010418945913296404,
        "Eccentricity": 0.0,
        "Inclination(deg)": 60.0,
        "Latitude(deg)": 58.986437407118636,
        "Longitude(deg)": -122.78457511084477,
        "Mean Anomaly(deg)": 98.80190614546179,
        "RAAN(deg)": 229.99957995086024,
        "Satellite Name": "Test1 1018",
        "Satellite Number": 1018,
        "Semi-Major Axis(m)": 6980739.136638005,
        "Time(s)": 10
    }
]